[{"id":101,"fname":"网络数据库     ","lname":"Devlin              ","address":"3114 Pioneer Avenue                ","city":"深圳                ","state":"NJ","zip":"07070     ","phone":"2015558966  ","company_name":"The Power Group                    "},{"id":102,"fname":"aaaa           ","lname":"Reiser              ","address":"1033 Whippany Road                 ","city":"广州                ","state":"NY","zip":"10154     ","phone":"2125558725  ","company_name":"AMF Corp.                          "},{"id":103,"fname":"Erin           ","lname":"Niedringhaus        ","address":"1990 Windsor Street                ","city":"上海                ","state":"PA","zip":"19301     ","phone":"2155556513  ","company_name":"Darling Associates                 "},{"id":105,"fname":"               ","lname":"f                   ","address":"1210 Highway 36                    ","city":"北京                ","state":"IN","zip":"46032     ","phone":"3175558437  ","company_name":"Amo & Sons                         "},{"id":106,"fname":"Paul           ","lname":"Phillips            ","address":"2000 Cherry Creek N. Dr.           ","city":"南京                ","state":"CT","zip":"64579     ","phone":"2035553464  ","company_name":"Ralston Inc.                       "},{"id":107,"fname":"Kelly          ","lname":"Colburn             ","address":"18131 Vallco Parkway               ","city":"哈尔滨              ","state":"NC","zip":"27695-7209","phone":"9195555152  ","company_name":"The Home Club                      "},{"id":108,"fname":"Matthew        ","lname":"Goforth             ","address":"11801 Wayzata Blvd.                ","city":"西昌                ","state":"TN","zip":"37421     ","phone":"6155558926  ","company_name":"Raleigh Co.                        "},{"id":109,"fname":"Jessie         ","lname":"Gagliardo           ","address":"2800 Park Avenue                   ","city":"南昌                ","state":"PQ","zip":"K1A 0H3   ","phone":"8195559539  ","company_name":"Newton Ent.                        "},{"id":110,"fname":"Michael        ","lname":"Agliori             ","address":"13705 North Glebe Road             ","city":"Columbus            ","state":"OH","zip":"43216     ","phone":"6145552496  ","company_name":"The Pep Squad                      "},{"id":111,"fname":"Dylan          ","lname":"Ricci               ","address":"14700 Prosperity Avenue            ","city":"Syracuse            ","state":"NY","zip":"13202     ","phone":"3155554486  ","company_name":"Dynamics Inc.                      "},{"id":112,"fname":"Shawn          ","lname":"McDonough           ","address":"15175 S Main Street                ","city":"Brooklyn Park       ","state":"MN","zip":"55428     ","phone":"6125555603  ","company_name":"McManus Inc.                       "},{"id":113,"fname":"Samuel         ","lname":"Kaiser              ","address":"404 Bristol Street                 ","city":"Minneapolis         ","state":"MN","zip":"55041     ","phone":"6125553409  ","company_name":"Lakes Inc.                         "},{"id":114,"fname":"Shane          ","lname":"Chopp               ","address":"9925 Summer Street                 ","city":"St Paul             ","state":"MN","zip":"55104     ","phone":"6125556453  ","company_name":"Howard Co.                         "},{"id":115,"fname":"Shannon        ","lname":"Phillips            ","address":"20555 Cory Road                    ","city":"St Paul             ","state":"MN","zip":"55114     ","phone":"6125556425  ","company_name":"Sterling & Co.                     "},{"id":116,"fname":"Brian          ","lname":"Gugliuzza           ","address":"39111 Wyman Street                 ","city":"Mamaroneck          ","state":"NY","zip":"10543     ","phone":"9145553817  ","company_name":"Sampson & Sons                     "},{"id":117,"fname":"Meredith       ","lname":"Morgan              ","address":"9191 Galveston Drive               ","city":"Westerville         ","state":"OH","zip":"43081     ","phone":"6145558989  ","company_name":"Square Sports                      "},{"id":118,"fname":"Kristina       ","lname":"Sanford             ","address":"2196th Street                      ","city":"Raleigh             ","state":"NC","zip":"27695-7209","phone":"9195555152  ","company_name":"Raleigh Active Wear                "},{"id":119,"fname":"Tomm           ","lname":"Smith               ","address":"3 Post Oak Blvd.                   ","city":"South Laguna        ","state":"CA","zip":"92677     ","phone":"7145554996  ","company_name":"Ocean Sports                       "},{"id":120,"fname":"Gertrude       ","lname":"Stein               ","address":"4 Amon Carter Blvd.                ","city":"Elmsford            ","state":"NY","zip":"10523     ","phone":"9145553476  ","company_name":"Carney Co.                         "},{"id":121,"fname":"Pete           ","lname":"Elkins              ","address":"23 Lawerence Street                ","city":"Carmel              ","state":"IN","zip":"46032     ","phone":"3175558437  ","company_name":"Carmel Industries                  "},{"id":122,"fname":"Al             ","lname":"Dente               ","address":"25 N.E. 38th Place                 ","city":"McLean              ","state":"VA","zip":"22102     ","phone":"7035557491  ","company_name":"Virgina Power                      "},{"id":123,"fname":"Amanda         ","lname":"Lin                 ","address":"25 North Pine Grove                ","city":"Winnipeg            ","state":"MB","zip":"R3C 3V6   ","phone":"2045555559  ","company_name":"North Land Trading                 "},{"id":124,"fname":"Fanny          ","lname":"Farmer              ","address":"110 Barnard Lane                   ","city":"Wilmington          ","state":"MA","zip":"01887     ","phone":"6175559386  ","company_name":"The Ristuccia Center               "},{"id":125,"fname":"Sidney         ","lname":"Smelledge           ","address":"125 Merritt Drive                  ","city":"St. Louis           ","state":"MO","zip":"63101     ","phone":"3145553426  ","company_name":"Bush Pro Shop                      "},{"id":126,"fname":"Sam            ","lname":"Ovar                ","address":"5 Lindenwood Drive                 ","city":"San Francisco       ","state":"CA","zip":"94105     ","phone":"4155555972  ","company_name":"Golden Gate Active Wear            "},{"id":127,"fname":"Mary           ","lname":"Lamm                ","address":"10 McKinney                        ","city":"Sarasota            ","state":"FL","zip":"34243     ","phone":"8135557566  ","company_name":"The Palms                          "},{"id":128,"fname":"Hardy          ","lname":"Mums                ","address":"11 5th Avenue S.W.                 ","city":"Boston              ","state":"MA","zip":"02106     ","phone":"6175554340  ","company_name":"BoSox Club                         "},{"id":129,"fname":"Heinz          ","lname":"Fahrvergnugen       ","address":"11 Armagh Street                   ","city":"Baltimore           ","state":"MD","zip":"21202     ","phone":"3015553322  ","company_name":"Camden Sports Apparel              "},{"id":130,"fname":"Sal            ","lname":"Monella             ","address":"20th Eastlake Avenue               ","city":"New Berlin          ","state":"WI","zip":"53141     ","phone":"4145556799  ","company_name":"Wyse Corp.                         "},{"id":131,"fname":"Daljit         ","lname":"Sinnot              ","address":"145 Presidents Landing             ","city":"Bohemia             ","state":"NY","zip":"11716     ","phone":"5165559811  ","company_name":"The Pro Shopp                      "},{"id":132,"fname":"Marilyn        ","lname":"King                ","address":"167 South Ulster                   ","city":"Fort Wayne          ","state":"IN","zip":"46801     ","phone":"2195554551  ","company_name":"Bristol Co.                        "},{"id":133,"fname":"Moe            ","lname":"Bilhome             ","address":"180 W. Colfax Avenue               ","city":"Burbank             ","state":"CA","zip":"91505     ","phone":"8185558455  ","company_name":"Bilhome Industries                 "},{"id":134,"fname":"Paddy          ","lname":"O'Furniture         ","address":"1180 W. Las Colinas                ","city":"Mogadore            ","state":"OH","zip":"44260     ","phone":"2165556283  ","company_name":"Gifts & Things                     "},{"id":135,"fname":"Belinda        ","lname":"Clarke              ","address":"204 Constitution Avenue            ","city":"New York            ","state":"NY","zip":"10001     ","phone":"2125555026  ","company_name":"Hermanns                           "},{"id":136,"fname":"Tommie         ","lname":"Wooten              ","address":"1322 Hing Wai Building             ","city":"Plymouth            ","state":"MN","zip":"55447     ","phone":"6125553373  ","company_name":"Leisure Time                       "},{"id":137,"fname":"Polly          ","lname":"Morfek              ","address":"879 Hopyard Road                   ","city":"Ft. Wayne           ","state":"IN","zip":"46808     ","phone":"2195554297  ","company_name":"Sports Plus                        "},{"id":138,"fname":"Regus          ","lname":"Patoff              ","address":"22 James Way                       ","city":"Burlington          ","state":"ON","zip":"L7N 5L1   ","phone":"9065554252  ","company_name":"Sports Replay                      "},{"id":139,"fname":"Jai            ","lname":"Dimitros            ","address":"236 Marineship Way                 ","city":"Boston              ","state":"MA","zip":"02201     ","phone":"6175556354  ","company_name":"Martins Landing                    "},{"id":140,"fname":"Thomas         ","lname":"Thumb               ","address":"250 North Vine Street              ","city":"Salt Lake City      ","state":"UT","zip":"84180     ","phone":"8015553550  ","company_name":"Ski,Ski,Ski                        "},{"id":141,"fname":"Peter          ","lname":"Pyper               ","address":"408 Beta Mall                      ","city":"Fort Wayne          ","state":"IN","zip":"46801     ","phone":"2195554552  ","company_name":"Mall Side Sports                   "},{"id":142,"fname":"Alfredo        ","lname":"Margolis            ","address":"400 Bloor Street East              ","city":"Kansas City         ","state":"MO","zip":"64114     ","phone":"8165558543  ","company_name":"Creative Customs Inc.              "},{"id":143,"fname":"Peter          ","lname":"Piper               ","address":"3100 Stevens Creek Blvd.           ","city":"Winnipeg            ","state":"MB","zip":"R3C 3V6   ","phone":"2045559414  ","company_name":"Molly's                            "},{"id":144,"fname":"Fangmei        ","lname":"Wan                 ","address":"4513 E. Hillsdale                  ","city":"Stowe               ","state":"MA","zip":"01775     ","phone":"5085558979  ","company_name":"Green Acre's Custom Tee's          "},{"id":145,"fname":"John           ","lname":"Doe                 ","address":"357 Wellworth Ave                  ","city":"Fairfax             ","state":"VA","zip":"22030     ","phone":"7035552184  ","company_name":"Doe, Rae, Mee                      "},{"id":146,"fname":"Alberto        ","lname":"Yost                ","address":"375 White Horse Road               ","city":"Spokane             ","state":"WA","zip":"99216     ","phone":"5095559276  ","company_name":"Custom Designs                     "},{"id":147,"fname":"Manoj          ","lname":"Lela                ","address":"501 Third Avenue North             ","city":"Wood Bridge         ","state":"NJ","zip":"07095     ","phone":"9085556021  ","company_name":"Norton Co.                         "},{"id":148,"fname":"Beth           ","lname":"Crooker             ","address":"501 College Road                   ","city":"Winnepeg            ","state":"MB","zip":"R3C 2P4   ","phone":"2045555554  ","company_name":"Cooper Inc.                        "},{"id":149,"fname":"Hans           ","lname":"Uhnfitte            ","address":"3700 West Wacker Dr                ","city":"Winnepeg            ","state":"MB","zip":"R3C `2P4  ","phone":"2045554744  ","company_name":"The Ultimate                       "},{"id":150,"fname":"Carl           ","lname":"Mason               ","address":"1000 Powell Street                 ","city":"Don Mills           ","state":"ON","zip":"M3C 3N4   ","phone":"4165555108  ","company_name":"Power Play                         "},{"id":151,"fname":"Balwinder      ","lname":"Sinitskaya          ","address":"1133 Century Blvd                  ","city":"Overland Park       ","state":"KS","zip":"66210     ","phone":"9135554519  ","company_name":"Toto's Active Wear                 "},{"id":152,"fname":"Davey          ","lname":"Jones               ","address":"1218 Inelt Business Ctr.           ","city":"Austin              ","state":"NY","zip":"11746     ","phone":"5165555952  ","company_name":"Play it again Sports               "},{"id":153,"fname":"Paul           ","lname":"Jones               ","address":"1221 Innovation Drive              ","city":"Cincinnati          ","state":"OH","zip":"45202     ","phone":"5135557622  ","company_name":"Three Rivers Pro Shop              "},{"id":154,"fname":"Marvin         ","lname":"Smythe              ","address":"1291 North 27th Ave                ","city":"North Miami         ","state":"FL","zip":"33181     ","phone":"3055559457  ","company_name":"Marlin Mainia                      "},{"id":155,"fname":"Milo           ","lname":"Phipps              ","address":"1380 Osterbrogade                  ","city":"Lakewood            ","state":"OH","zip":"44107     ","phone":"2165552264  ","company_name":"Things Remembered                  "},{"id":156,"fname":"Sue            ","lname":"DuCode              ","address":"1515 San Thomas Avenue             ","city":"St Louis            ","state":"MO","zip":"63131     ","phone":"3145558227  ","company_name":"Ozzie's Haven                      "},{"id":157,"fname":"William        ","lname":"Watcom              ","address":"1615 Silver Lake Road              ","city":"Chicago             ","state":"IL","zip":"60645     ","phone":"3125557433  ","company_name":"The Cub's Den                      "},{"id":158,"fname":"Jack           ","lname":"Cass                ","address":"3626 West Court Street             ","city":"Lexington           ","state":"MA","zip":"02173     ","phone":"6175558610  ","company_name":"Jordan's Basement                  "},{"id":159,"fname":"Rick           ","lname":"Shaw                ","address":"3715 West Loop South               ","city":"West Bloomfield     ","state":"MI","zip":"48324     ","phone":"3135553638  ","company_name":"ScrimShaw's                        "},{"id":160,"fname":"Clara          ","lname":"Nette               ","address":"3773 Wilshire Blvd                 ","city":"Port Washington     ","state":"NY","zip":"11050     ","phone":"5165556250  ","company_name":"Discount Department Store          "},{"id":161,"fname":"Gene           ","lname":"Poole               ","address":"3860 Vreeland Road                 ","city":"Washington          ","state":"DC","zip":"20581     ","phone":"2025556537  ","company_name":"State House Active Wear            "},{"id":162,"fname":"Melba          ","lname":"Toste               ","address":"3930 51st Ave North                ","city":"Powell              ","state":"OH","zip":"43065     ","phone":"6145558983  ","company_name":"The Real Deal                      "},{"id":163,"fname":"R.I.           ","lname":"Peese               ","address":"4199 Buckingham                    ","city":"Mississauga         ","state":"ON","zip":"L4W 2S6   ","phone":"4165556026  ","company_name":"Mount Eastern Sports               "},{"id":164,"fname":"Aram           ","lname":"Najarian            ","address":"200 Cambridge Center               ","city":"Danbury             ","state":"CT","zip":"6811      ","phone":"2035557907  ","company_name":"Bloomfield's                       "},{"id":165,"fname":"Tamara         ","lname":"Mournen             ","address":"42 Choke Cherry Road               ","city":"Ft. Wayne           ","state":"IN","zip":"46808     ","phone":"2195554297  ","company_name":"Moran's Gift Shop                  "},{"id":166,"fname":"Malcolm        ","lname":"Naddem              ","address":"4255 Commerce Parkway              ","city":"Buford              ","state":"GA","zip":"30518     ","phone":"4045552529  ","company_name":"Hospital Gift's                    "},{"id":167,"fname":"Nicklas        ","lname":"Cara                ","address":"1700 State Highway 249             ","city":"Lakewood            ","state":"OH","zip":"44107     ","phone":"2165552264  ","company_name":"The Road Side Inn                  "},{"id":168,"fname":"Almen          ","lname":"de Joie             ","address":"1750 Sweitzer Lane                 ","city":"Huntington Beach    ","state":"CA","zip":"92649     ","phone":"7145555475  ","company_name":"Surf's Up!                         "},{"id":169,"fname":"Laura          ","lname":"Terlemezian         ","address":"240 First Street                   ","city":"Matthews            ","state":"NC","zip":"28105     ","phone":"7045558411  ","company_name":"CoMed                              "},{"id":170,"fname":"Manh           ","lname":"Neubauer            ","address":"2140 Haddington Street             ","city":"Jacksonville        ","state":"FL","zip":"32206     ","phone":"9045553551  ","company_name":"Jason's Sporting Goods             "},{"id":171,"fname":"Vincent        ","lname":"Nahra               ","address":"2180 Harwin Drive                  ","city":"West Chicago        ","state":"IL","zip":"60185-1120","phone":"3125555551  ","company_name":"Iron Mike's Apparel                "},{"id":172,"fname":"Grace          ","lname":"Perez               ","address":"395 Market Street                  ","city":"Landover            ","state":"MA","zip":"20785     ","phone":"3015557728  ","company_name":"Avon Inc.                          "},{"id":173,"fname":"Grover         ","lname":"Pendelton           ","address":"239 Merritt Drive                  ","city":"Clarksburg          ","state":"MD","zip":"20871     ","phone":"3015554284  ","company_name":"Simply Tee's                       "},{"id":174,"fname":"Anabai         ","lname":"Zoblotny            ","address":"12600 N.E. Airport Way             ","city":"Denver              ","state":"CO","zip":"80225     ","phone":"3035552757  ","company_name":"Hats Etc.                          "},{"id":175,"fname":"Tawfik         ","lname":"Perkins             ","address":"1270 N.W. 7th Avenue               ","city":"Victoria            ","state":"BC","zip":"V8W 2B7   ","phone":"6045553801  ","company_name":"The Hat Company                    "},{"id":176,"fname":"Helen          ","lname":"Shumovich           ","address":"2800 Park Plaza #1800              ","city":"Baltimore           ","state":"MD","zip":"21209     ","phone":"4105553322  ","company_name":"The Bird's Loft                    "},{"id":177,"fname":"Joseph         ","lname":"Zubenko             ","address":"314 Stonehollow Drive              ","city":"Raleigh             ","state":"NC","zip":"27695     ","phone":"9195555152  ","company_name":"Avco Ent.                          "},{"id":178,"fname":"Suresh         ","lname":"Naidu               ","address":"321 Sycamore Drive                 ","city":"New London          ","state":"CT","zip":"6320      ","phone":"2035554440  ","company_name":"Amy's Silk Screening               "},{"id":179,"fname":"Marsha         ","lname":"Nguyen              ","address":"44 Dunlaney Gate Circle            ","city":"Miramar             ","state":"FL","zip":"33027     ","phone":"3055554336  ","company_name":"Resco                              "},{"id":180,"fname":"Edith          ","lname":"Peros               ","address":"50 Market Street                   ","city":"Rochester           ","state":"NY","zip":"14624     ","phone":"7165554275  ","company_name":"Breswick's Department Store        "},{"id":181,"fname":"Emunah         ","lname":"Teeven              ","address":"101 Wilshire Blvd.                 ","city":"Washington          ","state":"DC","zip":"20240     ","phone":"2025552083  ","company_name":"Hometown Tee's                     "},{"id":182,"fname":"Leilani        ","lname":"Gardner             ","address":"103 Campus Drive                   ","city":"Acworth             ","state":"CA","zip":"30102     ","phone":"4045559283  ","company_name":"Polly's Custom Design              "},{"id":183,"fname":"Marilyn        ","lname":"Nakagama            ","address":"105 Central Avenue                 ","city":"Winter Park         ","state":"FL","zip":"32792     ","phone":"4075556776  ","company_name":"Zoo Gift Shop                      "},{"id":184,"fname":"Anoush         ","lname":"Serafina            ","address":"4643 Greenway Place                ","city":"Overland Park       ","state":"KS","zip":"66210     ","phone":"9135554519  ","company_name":"Westend Dealers                    "},{"id":185,"fname":"Serop          ","lname":"Belmont             ","address":"4867 Hadley Lane                   ","city":"Hartford            ","state":"CT","zip":"6115      ","phone":"2035555474  ","company_name":"The Heartford                      "},{"id":186,"fname":"Thao           ","lname":"Tenorio             ","address":"5000 Midway Road                   ","city":"Kansas City         ","state":"MO","zip":"64105     ","phone":"8165558543  ","company_name":"Wally's World                      "},{"id":187,"fname":"Sebouh         ","lname":"Bensoul             ","address":"8024 Van Ness Way                  ","city":"Peoria              ","state":"IL","zip":"61614     ","phone":"3095556915  ","company_name":"Bensoul's Boutique                 "},{"id":188,"fname":"Vartan         ","lname":"Berenberg           ","address":"1020 110th Avenue N.E.             ","city":"Northbrook          ","state":"IL","zip":"60062     ","phone":"7085552914  ","company_name":"Diva's Design                      "},{"id":189,"fname":"Herbert        ","lname":"Berejiklian         ","address":"1535 Municiple Drive               ","city":"Cambridge           ","state":"MA","zip":"02142     ","phone":"6175553547  ","company_name":"Out of Town Sports                 "},{"id":190,"fname":"Randy          ","lname":"Arlington           ","address":"1635 N Franklin Turnpike           ","city":"Detriot             ","state":"MI","zip":"48214     ","phone":"3135555716  ","company_name":"Jim Dandy's                        "},{"id":191,"fname":"Marta          ","lname":"Richards            ","address":"10707 Northridge Road              ","city":"Miami               ","state":"FL","zip":"33172     ","phone":"3055554711  ","company_name":"Ocean Sports Wear                  "},{"id":192,"fname":"Rosanna        ","lname":"Beldov              ","address":"1889 Northside Parkway             ","city":"Sioux City          ","state":"IA","zip":"51102     ","phone":"7125552741  ","company_name":"Morrell Inc.                       "},{"id":193,"fname":"Alfred         ","lname":"Newman              ","address":"2721 Northeast 99th Way            ","city":"Kansas City         ","state":"MO","zip":"64114     ","phone":"8165558543  ","company_name":"Big Sky Design                     "},{"id":194,"fname":"Jen-Chang      ","lname":"Chin                ","address":"2770 Oyster Point Blvd             ","city":"Fairfax             ","state":"VA","zip":"02203     ","phone":"7035558037  ","company_name":"Cinnamon Rainbow's                 "},{"id":195,"fname":"Li-Hui         ","lname":"Jyh-Hwa             ","address":"301 Potrero Avenue                 ","city":"Atlanta             ","state":"GA","zip":"30303     ","phone":"4045556762  ","company_name":"Peachtree Active Wear              "},{"id":196,"fname":"Ling Ling      ","lname":"Andrews             ","address":"303 Roe Avenue                     ","city":"Edmonton            ","state":"AB","zip":"T5N 1S5   ","phone":"4035554884  ","company_name":"The Igloo                          "},{"id":197,"fname":"Maio           ","lname":"Chermak             ","address":"330 Sycamore Road                  ","city":"Atlanta             ","state":"GA","zip":"30346     ","phone":"4045558046  ","company_name":"Southern Sports                    "},{"id":198,"fname":"Sheng          ","lname":"Chen                ","address":"1801 W. Six Mile Road              ","city":"San Ramon           ","state":"CA","zip":"94583     ","phone":"5105558666  ","company_name":"Able Inc.                          "},{"id":199,"fname":"Ella           ","lname":"Mentary             ","address":"452 Embarcadero Center             ","city":"Rochester           ","state":"NY","zip":"14644     ","phone":"7165554236  ","company_name":"Nobel Co.                          "},{"id":200,"fname":"Helen          ","lname":"Chau                ","address":"1900 Yamato Road                   ","city":"North Potomac       ","state":"MD","zip":"20878     ","phone":"3015553099  ","company_name":"Stone's Sporting Goods             "},{"id":201,"fname":"Amit           ","lname":"Singh               ","address":"1986 Yonge Street                  ","city":"Overland Park       ","state":"KS","zip":"66210     ","phone":"9135554519  ","company_name":"Overland Army Navy                 "},{"id":202,"fname":"Bubba          ","lname":"Murphy              ","address":"2401 N. 44th Street                ","city":"White Plains        ","state":"NY","zip":"10604     ","phone":"9145556961  ","company_name":"Dane's World                       "},{"id":203,"fname":"Salton         ","lname":"Pepper              ","address":"401 Boylston Street                ","city":"Madison             ","state":"WI","zip":"53705     ","phone":"6085552673  ","company_name":"Salt & Pepper's                    "},{"id":204,"fname":"Robert         ","lname":"Spaid               ","address":"333 Town Center                    ","city":"Jackson             ","state":"MI","zip":"49202     ","phone":"5175557883  ","company_name":"Cognos Sports                      "},{"id":205,"fname":"Elmo           ","lname":"Smythe              ","address":"2815 Plaza Street                  ","city":"East Douglas        ","state":"MA","zip":"01516     ","phone":"5085554761  ","company_name":"East Coast Traders                 "},{"id":206,"fname":"JohnPaul       ","lname":"Jones               ","address":"2999 Post Oak Blvd.                ","city":"Reston              ","state":"VA","zip":"22091     ","phone":"7035556209  ","company_name":"Chadwicks                          "},{"id":207,"fname":"Wen-Chu        ","lname":"Donchek             ","address":"2406 N. Mission                    ","city":"Lisle               ","state":"IL","zip":"60532     ","phone":"7085555055  ","company_name":"The Country Store                  "},{"id":208,"fname":"Derek          ","lname":"Suess               ","address":"234 King George Drive              ","city":"Albany              ","state":"NY","zip":"12208     ","phone":"5185552623  ","company_name":"Capital Center Sports              "},{"id":209,"fname":"Laura          ","lname":"Boyle               ","address":"130 Pillsbury Road                 ","city":"Los Altos           ","state":"CA","zip":"94022     ","phone":"4155559678  ","company_name":"Boyle's Swap Meet                  "},{"id":220,"fname":"Lewis N.       ","lname":"Clark               ","address":"245 Expedition Hwy                 ","city":"Laramie             ","state":"WY","zip":"85293     ","phone":"3075556589  ","company_name":"Trek Outfitters                    "},{"id":221,"fname":"Jack           ","lname":"Johnson             ","address":"45 Shoebox Lane                    ","city":"Santa Fe            ","state":"NM","zip":"40420     ","phone":"5055554568  ","company_name":"Turkey Creek Co.                   "},{"id":222,"fname":"Jane           ","lname":"Doe                 ","address":"57 Disk Drive                      ","city":"San Jose            ","state":"CA","zip":"94020     ","phone":"4085558796  ","company_name":"data Recovery Services             "},{"id":234,"fname":"SDF            ","lname":"SDF                 ","address":"A\r\nDFJH\r\nASDF                      ","city":"ASD                 ","state":"1 ","zip":"SDFG      ","phone":"SDFG        "},{"id":330,"fname":"John           ","lname":"Glenn               ","address":"90 Rocket Pad                      ","city":"Orlando             ","state":"FL","zip":"32200     ","phone":"4075558574  ","company_name":"Launch Facilities                  "},{"id":331,"fname":"Dominic        ","lname":"Johansen            ","address":"33 West Street                     ","city":"New Orleans         ","state":"LA","zip":"33552     ","phone":"5045558487  ","company_name":"Mardi Gras Parties                 "},{"id":332,"fname":"Stanley        ","lname":"Jue                 ","address":"67 Bronco Circle                   ","city":"Houston             ","state":"TX","zip":"77057     ","phone":"7135558857  ","company_name":"Bay Town Bus Co.                   "},{"id":333,"fname":"Harry          ","lname":"Jones               ","address":"25 Software Rd                     ","city":"San Jose            ","state":"CA","zip":"94020     ","phone":"4085556689  ","company_name":"Bits & Bytes                       "},{"id":440,"fname":"Marie          ","lname":"Curie               ","address":"210 Helping Hand Hwy               ","city":"LeCroix             ","state":"MA","zip":"02140     ","phone":"6175558875  ","company_name":"Wind & Rain                        "},{"id":441,"fname":"Elizibeth      ","lname":"Bordon              ","address":"87 Grinding Stone Rd               ","city":"New Bedford         ","state":"MA","zip":"01801     ","phone":"5085558879  ","company_name":"Blades & things                    "},{"id":444,"fname":"Len            ","lname":"Manager             ","address":"23 Network Way                     ","city":"Dallas              ","state":"TX","zip":"76552     ","phone":"2145552685  ","company_name":"Let's get Connected                "},{"id":550,"fname":"Tony           ","lname":"Antolini            ","address":"6678 Sliver Road                   ","city":"Fargo               ","state":"ND","zip":"60500     ","phone":"7015553259  ","company_name":"Flat Landers                       "},{"id":551,"fname":"Tom            ","lname":"Cruz                ","address":"789 Far Away Lane                  ","city":"Eugene              ","state":"OR","zip":"98524     ","phone":"5035557462  ","company_name":"Raceway Engines                    "},{"id":552,"fname":"Janice         ","lname":"O'Toole             ","address":"654 West Hill                      ","city":"Nashville           ","state":"TN","zip":"37320     ","phone":"6155553689  ","company_name":"Greensleeves                       "},{"id":553,"fname":"Stevie         ","lname":"Nickolas            ","address":"77 Recordings Circle               ","city":"Tacoma              ","state":"WA","zip":"96521     ","phone":"5095551695  ","company_name":"It's a Hit!                        "},{"id":555,"fname":"Philipe        ","lname":"Fernandez           ","address":"99 Main Street                     ","city":"Los Angeles         ","state":"CA","zip":"90205     ","phone":"2135554457  ","company_name":"Quaker Fashions                    "},{"id":661,"fname":"Jennifer       ","lname":"Stutzman rr         ","address":"3 Back Pages Lane                  ","city":"Missola             ","state":"IL","zip":"60505     ","phone":"7085556857  ","company_name":"Stutzman Advertising               "},{"id":665,"fname":"William        ","lname":"                    ","address":"91 Washington Street               ","city":"Manchester          ","state":"NY","zip":"11700     ","phone":"5165552549  ","company_name":"The Apple Farm                     "}]
